ONEWEB-0349             
1 49281U 21090C   25125.88349539  .00000111  00000+0  24041-3 0  9996
2 49281  87.9296 355.5531 0001747  85.7915 274.3417 13.20771894176068
ONEWEB-0353             
1 49282U 21090D   25125.90444059  .00000101  00000+0  23831-3 0  9998
2 49282  87.9077  10.7220 0001623  73.6986 286.4322 13.14501850174072
ONEWEB-0356             
1 49283U 21090E   25125.88192121  .00000135  00000+0  29925-3 0  9993
2 49283  87.9294 355.5450 0002574  68.9996 291.1413 13.20772501176068
ONEWEB-0358             
1 49284U 21090F   25125.91191568  .00000024  00000+0  25970-4 0  9996
2 49284  87.9296 355.5287 0001993  83.8875 276.2486 13.20772223176790
ONEWEB-0359             
1 49285U 21090G   25125.60573051  .00000032  00000+0  46262-4 0  9990
2 49285  87.9294 355.6024 0002103  91.7274 268.4100 13.20772274176730
ONEWEB-0360             
1 49286U 21090H   25125.89928545  .00000048  00000+0  85120-4 0  9997
2 49286  87.9293 355.5497 0001925  86.7077 273.4276 13.20772394176080
ONEWEB-0361             
1 49287U 21090J   25125.88034372  .00000080  00000+0  16494-3 0  9996
2 49287  87.9294 355.5489 0001934  79.3790 280.7561 13.20773195176531
ONEWEB-0362             
1 49288U 21090K   25125.66196189 -.00000023  00000+0 -89822-4 0  9993
2 49288  87.9259  25.9977 0001732  85.3968 274.7363 13.19723514173160
